[{"OBJECT_NAME":"STARLINK-30227","OBJECT_ID":"2023-113L","EPOCH":"2026-03-09T05:24:25.568352","MEAN_MOTION":15.18160462,"ECCENTRICITY":0.00027892,"INCLINATION":43.0053,"RA_OF_ASC_NODE":4.8681,"ARG_OF_PERICENTER":225.8359,"MEAN_ANOMALY":134.226,"EPHEMERIS_TYPE":0,"CLASSIFICATION_TYPE":"U","NORAD_CAT_ID":57505,"ELEMENT_SET_NO":999,"REV_AT_EPOCH":14376,"BSTAR":0.0015710865,"MEAN_MOTION_DOT":0.00032605,"MEAN_MOTION_DDOT":0},{"OBJECT_NAME":"CONNECTA IOT-12","OBJECT_ID":"2025-135AB","EPOCH":"2026-03-09T20:41:06.229824","MEAN_MOTION":15.2119731,"ECCENTRICITY":0.00020679,"INCLINATION":97.4617,"RA_OF_ASC_NODE":185.2328,"ARG_OF_PERICENTER":71.4086,"MEAN_ANOMALY":288.7374,"EPHEMERIS_TYPE":0,"CLASSIFICATION_TYPE":"U","NORAD_CAT_ID":64553,"ELEMENT_SET_NO":999,"REV_AT_EPOCH":3977,"BSTAR":0.0002684746,"MEAN_MOTION_DOT":5.919e-5,"MEAN_MOTION_DDOT":0}]
