STARLINK-30227          
1 57505U 23113L   26068.22529593  .00032605  00000+0  15711-2 0  9993
2 57505  43.0053   4.8681 0002789 225.8359 134.2260 15.18160462143769
CONNECTA IOT-12         
1 64553U 25135AB  26068.86187765  .00005919  00000+0  26847-3 0  9992
2 64553  97.4617 185.2328 0002068  71.4086 288.7374 15.21197310 39775
